ONEWEB-0068             
1 45446U 20020Y   26192.94980287  .00000382  00000+0  10421-2 0  9996
2 45446  87.8890  16.1341 0001621  90.1833 269.9481 13.11418167305847
ONEWEB-0046             
1 45447U 20020Z   26192.94144910  .00000040  00000+0  75897-4 0  9993
2 45447  87.8882  16.1397 0001682  81.8437 278.2882 13.11419311305855
ONEWEB-0063             
1 45448U 20020AA  26192.51263886  .00000431  00000+0  11795-2 0  9990
2 45448  87.8872  16.2260 0001945  80.3473 279.7875 13.11414677305882
ONEWEB-0019             
1 45449U 20020AB  26192.55133906 -.00000215  00000+0 -64169-3 0  9990
2 45449  87.8900  16.2059 0001929  95.7841 264.3507 13.11409568305731
ONEWEB-0094             
1 45450U 20020AC  26192.88220641  .00000048  00000+0  89646-4 0  9991
2 45450  87.9150   0.9380 0001760  98.3286 261.8046 13.17648875309560
ONEWEB-0087             
1 45451U 20020AD  26192.52252837 -.00000171  00000+0 -51732-3 0  9998
2 45451  87.8898  16.2007 0001504  91.7372 268.3929 13.11414736305776
ONEWEB-0082             
1 45452U 20020AE  26192.59543785  .00000047  00000+0  96219-4 0  9991
2 45452  87.8889  16.2005 0001374  83.9227 276.2058 13.11415014305874
ONEWEB-0050             
1 45453U 20020AF  26192.58158923  .00001083  00000+0  10885-3 0  9992
2 45453  88.9282 229.8969 0001452 188.9123 171.2080 14.90465905344013
ONEWEB-0034             
1 45454U 20020AG  26192.93821764  .00000949  00000+0  26419-2 0  9991
2 45454  87.8883  16.1416 0001766  87.5915 272.5415 13.11412881305835
ONEWEB-0060             
1 45455U 20020AH  26192.58795265  .00000366  00000+0  99766-3 0  9998
2 45455  87.8880  16.2074 0001015 116.5172 243.6060 13.11415218305741
ONEWEB-0086             
1 45456U 20020AJ  26192.94810302  .00000296  00000+0  80058-3 0  9995
2 45456  87.8891  16.1329 0001707 115.1501 244.9804 13.11418938305859
ONEWEB-0088             
1 45457U 20020AK  26192.92618052 -.00000486  00000+0 -14082-2 0  9998
2 45457  87.8898  16.1117 0001788  76.0797 284.0529 13.11417322305780
ONEWEB-0102             
1 47258U 20100A   26192.83480329 -.00000387  00000+0 -11123-2 0  9995
2 47258  87.8954 345.7727 0001936 103.7425 256.3919 13.12442937267966
ONEWEB-0109             
1 47259U 20100B   26192.84327390 -.00000421  00000+0 -12052-2 0  9996
2 47259  87.8964 345.7571 0001979  97.4704 262.6650 13.12443913267799
ONEWEB-0110             
1 47260U 20100C   26192.87039797  .00000375  00000+0  10076-2 0  9992
2 47260  87.8968 345.7356 0001783 104.9917 255.1409 13.12443452267965
ONEWEB-0111             
1 47261U 20100D   26192.82464234 -.00000189  00000+0 -56078-3 0  9994
2 47261  87.8965 345.7635 0001760  95.7006 264.4323 13.12441881267797
ONEWEB-0114             
1 47262U 20100E   26192.85513491 -.00000031  00000+0 -12262-3 0  9991
2 47262  87.8972 345.7554 0002078  95.1101 265.0265 13.12443704267753
ONEWEB-0117             
1 47263U 20100F   26192.84666133 -.00000334  00000+0 -96426-3 0  9993
2 47263  87.8964 345.7472 0001840  96.8587 263.2751 13.12443088267762
ONEWEB-0118             
1 47264U 20100G   26192.80431685  .00000431  00000+0  11637-2 0  9998
2 47264  87.8955 345.7571 0001803  89.5570 270.5765 13.12441639267950
ONEWEB-0119             
1 47265U 20100H   26192.82972468 -.00000377  00000+0 -10846-2 0  9992
2 47265  87.8955 345.7682 0002279  95.4205 264.7184 13.12440623267933
ONEWEB-0120             
1 47266U 20100J   26192.85357829 -.00000147  00000+0 -44530-3 0  9997
2 47266  87.8952 345.7649 0002018  98.2186 261.9171 13.12443268267960
ONEWEB-0121             
1 47267U 20100K   26192.84157621 -.00000417  00000+0 -11937-2 0  9999
2 47267  87.8968 345.7551 0001542  96.2998 263.8306 13.12442472267877
ONEWEB-0122             
1 47268U 20100L   26192.83564287 -.00000297  00000+0 -86043-3 0  9996
2 47268  87.8966 345.7618 0001828  97.6038 262.5298 13.12441491267783
ONEWEB-0123             
1 47269U 20100M   26192.83141228 -.00000394  00000+0 -11312-2 0  9997
2 47269  87.8956 345.7665 0001897  91.9643 268.1703 13.12441608267929
ONEWEB-0124             
1 47270U 20100N   26192.82125101 -.00000060  00000+0 -20255-3 0  9997
2 47270  87.8956 345.7711 0001702  95.3308 264.8015 13.12441578267806
ONEWEB-0125             
1 47271U 20100P   26192.87546959  .00000403  00000+0  10854-2 0  9993
2 47271  87.8965 345.7468 0001633  86.8964 273.2351 13.12442748267876
ONEWEB-0126             
1 47272U 20100Q   26192.81970581  .00000198  00000+0  51619-3 0  9996
2 47272  87.8961 345.7713 0001828  90.7931 269.3407 13.12441946267934
ONEWEB-0127             
1 47273U 20100R   26192.86191499  .00000258  00000+0  68152-3 0  9992
2 47273  87.8954 345.7606 0001891  95.4403 264.6941 13.12444421267969
ONEWEB-0128             
1 47274U 20100S   26192.88394117  .00000373  00000+0  10016-2 0  9990
2 47274  87.8955 345.7702 0001759 105.1993 254.9330 13.12442159267986
ONEWEB-0129             
1 47275U 20100T   26192.86360549  .00000723  00000+0  19728-2 0  9999
2 47275  87.8953 345.7526 0002286 109.1386 250.9990 13.12445803267915
