OBJECT_NAME,OBJECT_ID,EPOCH,MEAN_MOTION,ECCENTRICITY,INCLINATION,RA_OF_ASC_NODE,ARG_OF_PERICENTER,MEAN_ANOMALY,EPHEMERIS_TYPE,CLASSIFICATION_TYPE,NORAD_CAT_ID,ELEMENT_SET_NO,REV_AT_EPOCH,BSTAR,MEAN_MOTION_DOT,MEAN_MOTION_DDOT
ONEWEB-0068,2020-020Y,2026-07-11T22:47:42.967968,13.11418167,.00016214,87.8890,16.1341,90.1833,269.9481,0,U,45446,999,30584,.10420539E-2,.382E-5,0
ONEWEB-0046,2020-020Z,2026-07-11T22:35:41.202240,13.11419311,.00016826,87.8882,16.1397,81.8437,278.2882,0,U,45447,999,30585,.75897488E-4,.4E-6,0
ONEWEB-0063,2020-020AA,2026-07-11T12:18:11.997504,13.11414677,.00019454,87.8872,16.2260,80.3473,279.7875,0,U,45448,999,30588,.1179461E-2,.431E-5,0
ONEWEB-0019,2020-020AB,2026-07-11T13:13:55.694784,13.11409568,.00019298,87.8900,16.2059,95.7841,264.3507,0,U,45449,999,30573,-.64169254E-3,-.215E-5,0
ONEWEB-0094,2020-020AC,2026-07-11T21:10:22.633824,13.17648875,.000176,87.9150,0.9380,98.3286,261.8046,0,U,45450,999,30956,.89645656E-4,.48E-6,0
ONEWEB-0087,2020-020AD,2026-07-11T12:32:26.451168,13.11414736,.00015044,87.8898,16.2007,91.7372,268.3929,0,U,45451,999,30577,-.51732062E-3,-.171E-5,0
ONEWEB-0082,2020-020AE,2026-07-11T14:17:25.830240,13.11415014,.00013741,87.8889,16.2005,83.9227,276.2058,0,U,45452,999,30587,.96219479E-4,.47E-6,0
ONEWEB-0050,2020-020AF,2026-07-11T13:57:29.309472,14.90465905,.00014524,88.9282,229.8969,188.9123,171.2080,0,U,45453,999,34401,.10885213E-3,.1083E-4,0
ONEWEB-0034,2020-020AG,2026-07-11T22:31:02.004096,13.11412881,.00017665,87.8883,16.1416,87.5915,272.5415,0,U,45454,999,30583,.26418882E-2,.949E-5,0
ONEWEB-0060,2020-020AH,2026-07-11T14:06:39.108960,13.11415218,.00010156,87.8880,16.2074,116.5172,243.6060,0,U,45455,999,30574,.99765673E-3,.366E-5,0
ONEWEB-0086,2020-020AJ,2026-07-11T22:45:16.100928,13.11418938,.0001707,87.8891,16.1329,115.1501,244.9804,0,U,45456,999,30585,.80058331E-3,.296E-5,0
ONEWEB-0088,2020-020AK,2026-07-11T22:13:41.996928,13.11417322,.00017887,87.8898,16.1117,76.0797,284.0529,0,U,45457,999,30578,-.14081542E-2,-.486E-5,0
ONEWEB-0102,2020-100A,2026-07-11T20:02:07.004256,13.12442937,.00019361,87.8954,345.7727,103.7425,256.3919,0,U,47258,999,26796,-.11123225E-2,-.387E-5,0
ONEWEB-0109,2020-100B,2026-07-11T20:14:18.864960,13.12443913,.00019795,87.8964,345.7571,97.4704,262.6650,0,U,47259,999,26779,-.12051581E-2,-.421E-5,0
ONEWEB-0110,2020-100C,2026-07-11T20:53:22.384608,13.12443452,.00017832,87.8968,345.7356,104.9917,255.1409,0,U,47260,999,26796,.10075571E-2,.375E-5,0
ONEWEB-0111,2020-100D,2026-07-11T19:47:29.098176,13.12441881,.00017604,87.8965,345.7635,95.7006,264.4323,0,U,47261,999,26779,-.56078023E-3,-.189E-5,0
ONEWEB-0114,2020-100E,2026-07-11T20:31:23.656224,13.12443704,.00020784,87.8972,345.7554,95.1101,265.0265,0,U,47262,999,26775,-.12261952E-3,-.31E-6,0
ONEWEB-0117,2020-100F,2026-07-11T20:19:11.538912,13.12443088,.00018406,87.8964,345.7472,96.8587,263.2751,0,U,47263,999,26776,-.96425973E-3,-.334E-5,0
ONEWEB-0118,2020-100G,2026-07-11T19:18:12.975840,13.12441639,.00018039,87.8955,345.7571,89.5570,270.5765,0,U,47264,999,26795,.11637213E-2,.431E-5,0
ONEWEB-0119,2020-100H,2026-07-11T19:54:48.212352,13.12440623,.0002279,87.8955,345.7682,95.4205,264.7184,0,U,47265,999,26793,-.10846314E-2,-.377E-5,0
ONEWEB-0120,2020-100J,2026-07-11T20:29:09.164256,13.12443268,.00020189,87.8952,345.7649,98.2186,261.9171,0,U,47266,999,26796,-.4453025E-3,-.147E-5,0
ONEWEB-0121,2020-100K,2026-07-11T20:11:52.184544,13.12442472,.00015423,87.8968,345.7551,96.2998,263.8306,0,U,47267,999,26787,-.1193666E-2,-.417E-5,0
ONEWEB-0122,2020-100L,2026-07-11T20:03:19.543968,13.12441491,.00018289,87.8966,345.7618,97.6038,262.5298,0,U,47268,999,26778,-.86042669E-3,-.297E-5,0
ONEWEB-0123,2020-100M,2026-07-11T19:57:14.020992,13.12441608,.00018976,87.8956,345.7665,91.9643,268.1703,0,U,47269,999,26792,-.11311799E-2,-.394E-5,0
ONEWEB-0124,2020-100N,2026-07-11T19:42:36.087264,13.12441578,.00017029,87.8956,345.7711,95.3308,264.8015,0,U,47270,999,26780,-.20254669E-3,-.6E-6,0
ONEWEB-0125,2020-100P,2026-07-11T21:00:40.572576,13.12442748,.00016335,87.8965,345.7468,86.8964,273.2351,0,U,47271,999,26787,.10854108E-2,.403E-5,0
ONEWEB-0126,2020-100Q,2026-07-11T19:40:22.581984,13.12441946,.00018287,87.8961,345.7713,90.7931,269.3407,0,U,47272,999,26793,.51618592E-3,.198E-5,0
ONEWEB-0127,2020-100R,2026-07-11T20:41:09.455136,13.12444421,.00018913,87.8954,345.7606,95.4403,264.6941,0,U,47273,999,26796,.68151997E-3,.258E-5,0
ONEWEB-0128,2020-100S,2026-07-11T21:12:52.517088,13.12442159,.0001759,87.8955,345.7702,105.1993,254.9330,0,U,47274,999,26798,.10015581E-2,.373E-5,0
ONEWEB-0129,2020-100T,2026-07-11T20:43:35.514336,13.12445803,.0002286,87.8953,345.7526,109.1386,250.9990,0,U,47275,999,26791,.19727517E-2,.723E-5,0
